[{"OBJECT_NAME":"KINEIS-5C","OBJECT_ID":"2024-219A","EPOCH":"2026-03-09T10:16:15.388896","MEAN_MOTION":14.72364906,"ECCENTRICITY":0.00018587,"INCLINATION":97.9657,"RA_OF_ASC_NODE":229.8875,"ARG_OF_PERICENTER":111.5072,"MEAN_ANOMALY":248.6333,"EPHEMERIS_TYPE":0,"CLASSIFICATION_TYPE":"U","NORAD_CAT_ID":62081,"ELEMENT_SET_NO":999,"REV_AT_EPOCH":6907,"BSTAR":0.00014320632,"MEAN_MOTION_DOT":8.57e-6,"MEAN_MOTION_DDOT":0},{"OBJECT_NAME":"SL-8 DEB","OBJECT_ID":"1984-019D","EPOCH":"2026-03-09T15:07:50.489472","MEAN_MOTION":14.72299496,"ECCENTRICITY":0.0008453,"INCLINATION":74.0417,"RA_OF_ASC_NODE":136.1412,"ARG_OF_PERICENTER":201.8132,"MEAN_ANOMALY":158.2681,"EPHEMERIS_TYPE":0,"CLASSIFICATION_TYPE":"U","NORAD_CAT_ID":18519,"ELEMENT_SET_NO":999,"REV_AT_EPOCH":4649,"BSTAR":0.0005514,"MEAN_MOTION_DOT":3.456e-5,"MEAN_MOTION_DDOT":0}]
